STARLINK-1470           
1 45772U 20038AU  26068.60892913  .00054678  00000+0  19687-2 0  9990
2 45772  53.0480 174.6971 0002444  12.8687 347.2373 15.28074860317065
STARLINK-34569          
1 64610U 25137S   26068.89960906  .00031908  00000+0  10834-2 0  9992
2 64610  53.1570 334.5045 0000950  47.2702 312.8378 15.30240762 40769
